ONEWEB-0116             
1 48046U 21025E   23059.45636675  .00000338  00000+0  89184-3 0  9999
2 48046  87.9046 199.6377 0001380  93.5720 266.5567 13.13471800 95502
ONEWEB-0116             
1 48046U 21025E   23059.68489888  .00000470  00000+0  12523-2 0  9995
2 48046  87.9046 199.5924 0001393  93.8598 266.2691 13.13472014 95535
ONEWEB-0116             
1 48046U 21025E   23059.91343194  .00000341  00000+0  89906-3 0  9997
2 48046  87.9046 199.5472 0001375  94.1436 265.9850 13.13471854 95565
ONEWEB-0116             
1 48046U 21025E   23060.90373894  .00000258  00000+0  67026-3 0  9994
2 48046  87.9047 199.3512 0001398  95.5053 264.6236 13.13472041 95691
ONEWEB-0116             
1 48046U 21025E   23061.13227006  .00000371  00000+0  98210-3 0  9998
2 48046  87.9047 199.3059 0001396  95.8697 264.2591 13.13473107 95720
ONEWEB-0116             
1 48046U 21025E   23061.81786721  .00000193  00000+0  49295-3 0  9998
2 48046  87.9049 199.1702 0001378  96.3177 263.8109 13.13472520 95812
ONEWEB-0116             
1 48046U 21025E   23062.35110759  .00000234  00000+0  60526-3 0  9996
2 48046  87.9048 199.0646 0001365  96.5298 263.5986 13.13473618 95885
ONEWEB-0116             
1 48046U 21025E   23062.42728501  .00000204  00000+0  52301-3 0  9993
2 48046  87.9048 199.0496 0001378  96.5959 263.5327 13.13473526 95894
ONEWEB-0116             
1 48046U 21025E   23062.88435113 -.00000099  00000+0 -30583-3 0  9999
2 48046  87.9047 198.9591 0001352  97.4952 262.6330 13.13471613 95958
